STARLINK-36998          
1 68286U 26055AA  26099.28524693  .00234261  00000+0  11533-2 0  9995
2 68286  53.1578 183.7448 0001180  57.2845 302.8291 15.80970652  4526
STARLINK-37165          
1 68287U 26055AB  26099.28449708  .00172864  00000+0  85877-3 0  9992
2 68287  53.1581 183.7380 0001206 111.3403 248.7748 15.80952869  4522
STARLINK-37016          
1 68288U 26055AC  26099.28599819  .00226894  00000+0  11197-2 0  9998
2 68288  53.1580 183.7484 0001234  58.4002 301.7141 15.80939189  4521
STARLINK-37010          
1 68289U 26055AD  26099.28374786  .00230206  00000+0  11341-2 0  9996
2 68289  53.1577 183.7328 0001171  71.4287 288.6863 15.80966752  4525
STARLINK-37151          
1 68290U 26055AE  26099.28299791  .00164345  00000+0  81861-3 0  9995
2 68290  53.1578 183.7275 0001826 333.3614  26.7315 15.80920950  4523
STRIX-6                 
1 68291U 26056A   26099.04040081  .00002494  00000+0  22035-3 0  9991
2 68291  50.2837 316.5451 0016428 338.9114  21.1156 14.99735501  2897
STARLINK-37107          
1 68294U 26057A   26099.32442517  .00082902  00000+0  42876-3 0  9993
2 68294  97.2837 223.2393 0000194  99.9346 260.1944 15.80851302  3108
STARLINK-37147          
1 68295U 26057B   26099.32367316  .00095298  00000+0  49182-3 0  9996
2 68295  97.2838 223.2393 0000474  69.8737 290.2582 15.80861840  3101
STARLINK-37142          
1 68296U 26057C   26099.32142028  .00095808  00000+0  49481-3 0  9997
2 68296  97.2839 223.2420 0001072  19.7285 340.4025 15.80844432  3109
STARLINK-37115          
1 68297U 26057D   26099.32217034  .00136831  00000+0  70206-3 0  9999
2 68297  97.2838 223.2398 0000649  20.2246 339.9048 15.80875044  3107
STARLINK-36355          
1 68298U 26057E   26099.32292070  .00122886  00000+0  63150-3 0  9998
2 68298  97.2838 223.2397 0000714  90.3373 269.7977 15.80878406  3105
STARLINK-37118          
1 68299U 26057F   26099.31991641  .00091137  00000+0  47069-3 0  9993
2 68299  97.2841 223.2429 0000629  54.6969 305.4358 15.80857877  3105
STARLINK-36875          
1 68300U 26057G   26099.32067158  .00158348  00000+0  80797-3 0  9997
2 68300  97.2835 223.2418 0001148  83.1187 277.0212 15.80938791  3103
STARLINK-37099          
1 68301U 26057H   26099.31916397  .00077111  00000+0  39904-3 0  9997
2 68301  97.2838 223.2444 0000553  83.9891 276.1440 15.80856245  3101
STARLINK-37007          
1 68302U 26057J   26099.31765984  .00092916  00000+0  47955-3 0  9997
2 68302  97.2840 223.2455 0000891 121.3548 238.7808 15.80867761  3105
