[{"OBJECT_NAME":"STARLINK-36998","OBJECT_ID":"2026-055AA","EPOCH":"2026-04-09T06:50:45.334752","MEAN_MOTION":15.80970652,"ECCENTRICITY":0.00011802,"INCLINATION":53.1578,"RA_OF_ASC_NODE":183.7448,"ARG_OF_PERICENTER":57.2845,"MEAN_ANOMALY":302.8291,"EPHEMERIS_TYPE":0,"CLASSIFICATION_TYPE":"U","NORAD_CAT_ID":68286,"ELEMENT_SET_NO":999,"REV_AT_EPOCH":452,"BSTAR":0.0011533078,"MEAN_MOTION_DOT":0.00234261,"MEAN_MOTION_DDOT":0},{"OBJECT_NAME":"STARLINK-37165","OBJECT_ID":"2026-055AB","EPOCH":"2026-04-09T06:49:40.547712","MEAN_MOTION":15.80952869,"ECCENTRICITY":0.00012068,"INCLINATION":53.1581,"RA_OF_ASC_NODE":183.738,"ARG_OF_PERICENTER":111.3403,"MEAN_ANOMALY":248.7748,"EPHEMERIS_TYPE":0,"CLASSIFICATION_TYPE":"U","NORAD_CAT_ID":68287,"ELEMENT_SET_NO":999,"REV_AT_EPOCH":452,"BSTAR":0.00085876791,"MEAN_MOTION_DOT":0.00172864,"MEAN_MOTION_DDOT":0},{"OBJECT_NAME":"STARLINK-37016","OBJECT_ID":"2026-055AC","EPOCH":"2026-04-09T06:51:50.243616","MEAN_MOTION":15.80939189,"ECCENTRICITY":0.0001234,"INCLINATION":53.158,"RA_OF_ASC_NODE":183.7484,"ARG_OF_PERICENTER":58.4002,"MEAN_ANOMALY":301.7141,"EPHEMERIS_TYPE":0,"CLASSIFICATION_TYPE":"U","NORAD_CAT_ID":68288,"ELEMENT_SET_NO":999,"REV_AT_EPOCH":452,"BSTAR":0.0011197294,"MEAN_MOTION_DOT":0.00226894,"MEAN_MOTION_DDOT":0},{"OBJECT_NAME":"STARLINK-37010","OBJECT_ID":"2026-055AD","EPOCH":"2026-04-09T06:48:35.815104","MEAN_MOTION":15.80966752,"ECCENTRICITY":0.00011717,"INCLINATION":53.1577,"RA_OF_ASC_NODE":183.7328,"ARG_OF_PERICENTER":71.4287,"MEAN_ANOMALY":288.6863,"EPHEMERIS_TYPE":0,"CLASSIFICATION_TYPE":"U","NORAD_CAT_ID":68289,"ELEMENT_SET_NO":999,"REV_AT_EPOCH":452,"BSTAR":0.0011341438,"MEAN_MOTION_DOT":0.00230206,"MEAN_MOTION_DDOT":0},{"OBJECT_NAME":"STARLINK-37151","OBJECT_ID":"2026-055AE","EPOCH":"2026-04-09T06:47:31.019424","MEAN_MOTION":15.8092095,"ECCENTRICITY":0.00018261,"INCLINATION":53.1578,"RA_OF_ASC_NODE":183.7275,"ARG_OF_PERICENTER":333.3614,"MEAN_ANOMALY":26.7315,"EPHEMERIS_TYPE":0,"CLASSIFICATION_TYPE":"U","NORAD_CAT_ID":68290,"ELEMENT_SET_NO":999,"REV_AT_EPOCH":452,"BSTAR":0.00081860757,"MEAN_MOTION_DOT":0.00164345,"MEAN_MOTION_DDOT":0},{"OBJECT_NAME":"STRIX-6","OBJECT_ID":"2026-056A","EPOCH":"2026-04-09T00:58:10.629984","MEAN_MOTION":14.99735501,"ECCENTRICITY":0.00164288,"INCLINATION":50.2837,"RA_OF_ASC_NODE":316.5451,"ARG_OF_PERICENTER":338.9114,"MEAN_ANOMALY":21.1156,"EPHEMERIS_TYPE":0,"CLASSIFICATION_TYPE":"U","NORAD_CAT_ID":68291,"ELEMENT_SET_NO":999,"REV_AT_EPOCH":289,"BSTAR":0.00022034772,"MEAN_MOTION_DOT":2.494e-5,"MEAN_MOTION_DDOT":0},{"OBJECT_NAME":"STARLINK-37107","OBJECT_ID":"2026-057A","EPOCH":"2026-04-09T07:47:10.334688","MEAN_MOTION":15.80851302,"ECCENTRICITY":1.942e-5,"INCLINATION":97.2837,"RA_OF_ASC_NODE":223.2393,"ARG_OF_PERICENTER":99.9346,"MEAN_ANOMALY":260.1944,"EPHEMERIS_TYPE":0,"CLASSIFICATION_TYPE":"U","NORAD_CAT_ID":68294,"ELEMENT_SET_NO":999,"REV_AT_EPOCH":310,"BSTAR":0.0004287626,"MEAN_MOTION_DOT":0.00082902,"MEAN_MOTION_DDOT":0},{"OBJECT_NAME":"STARLINK-37147","OBJECT_ID":"2026-057B","EPOCH":"2026-04-09T07:46:05.361024","MEAN_MOTION":15.8086184,"ECCENTRICITY":4.749e-5,"INCLINATION":97.2838,"RA_OF_ASC_NODE":223.2393,"ARG_OF_PERICENTER":69.8737,"MEAN_ANOMALY":290.2582,"EPHEMERIS_TYPE":0,"CLASSIFICATION_TYPE":"U","NORAD_CAT_ID":68295,"ELEMENT_SET_NO":999,"REV_AT_EPOCH":310,"BSTAR":0.00049182191,"MEAN_MOTION_DOT":0.00095298,"MEAN_MOTION_DDOT":0},{"OBJECT_NAME":"STARLINK-37142","OBJECT_ID":"2026-057C","EPOCH":"2026-04-09T07:42:50.712192","MEAN_MOTION":15.80844432,"ECCENTRICITY":0.00010727,"INCLINATION":97.2839,"RA_OF_ASC_NODE":223.242,"ARG_OF_PERICENTER":19.7285,"MEAN_ANOMALY":340.4025,"EPHEMERIS_TYPE":0,"CLASSIFICATION_TYPE":"U","NORAD_CAT_ID":68296,"ELEMENT_SET_NO":999,"REV_AT_EPOCH":310,"BSTAR":0.00049481052,"MEAN_MOTION_DOT":0.00095808,"MEAN_MOTION_DDOT":0},{"OBJECT_NAME":"STARLINK-37115","OBJECT_ID":"2026-057D","EPOCH":"2026-04-09T07:43:55.517376","MEAN_MOTION":15.80875044,"ECCENTRICITY":6.499e-5,"INCLINATION":97.2838,"RA_OF_ASC_NODE":223.2398,"ARG_OF_PERICENTER":20.2246,"MEAN_ANOMALY":339.9048,"EPHEMERIS_TYPE":0,"CLASSIFICATION_TYPE":"U","NORAD_CAT_ID":68297,"ELEMENT_SET_NO":999,"REV_AT_EPOCH":310,"BSTAR":0.00070206076,"MEAN_MOTION_DOT":0.00136831,"MEAN_MOTION_DDOT":0},{"OBJECT_NAME":"STARLINK-36355","OBJECT_ID":"2026-057E","EPOCH":"2026-04-09T07:45:00.348480","MEAN_MOTION":15.80878406,"ECCENTRICITY":7.149e-5,"INCLINATION":97.2838,"RA_OF_ASC_NODE":223.2397,"ARG_OF_PERICENTER":90.3373,"MEAN_ANOMALY":269.7977,"EPHEMERIS_TYPE":0,"CLASSIFICATION_TYPE":"U","NORAD_CAT_ID":68298,"ELEMENT_SET_NO":999,"REV_AT_EPOCH":310,"BSTAR":0.00063150313,"MEAN_MOTION_DOT":0.00122886,"MEAN_MOTION_DDOT":0},{"OBJECT_NAME":"STARLINK-37118","OBJECT_ID":"2026-057F","EPOCH":"2026-04-09T07:40:40.777824","MEAN_MOTION":15.80857877,"ECCENTRICITY":6.298e-5,"INCLINATION":97.2841,"RA_OF_ASC_NODE":223.2429,"ARG_OF_PERICENTER":54.6969,"MEAN_ANOMALY":305.4358,"EPHEMERIS_TYPE":0,"CLASSIFICATION_TYPE":"U","NORAD_CAT_ID":68299,"ELEMENT_SET_NO":999,"REV_AT_EPOCH":310,"BSTAR":0.00047069207,"MEAN_MOTION_DOT":0.00091137,"MEAN_MOTION_DDOT":0},{"OBJECT_NAME":"STARLINK-36875","OBJECT_ID":"2026-057G","EPOCH":"2026-04-09T07:41:46.024512","MEAN_MOTION":15.80938791,"ECCENTRICITY":0.00011485,"INCLINATION":97.2835,"RA_OF_ASC_NODE":223.2418,"ARG_OF_PERICENTER":83.1187,"MEAN_ANOMALY":277.0212,"EPHEMERIS_TYPE":0,"CLASSIFICATION_TYPE":"U","NORAD_CAT_ID":68300,"ELEMENT_SET_NO":999,"REV_AT_EPOCH":310,"BSTAR":0.0008079706,"MEAN_MOTION_DOT":0.00158348,"MEAN_MOTION_DDOT":0},{"OBJECT_NAME":"STARLINK-37099","OBJECT_ID":"2026-057H","EPOCH":"2026-04-09T07:39:35.767008","MEAN_MOTION":15.80856245,"ECCENTRICITY":5.531e-5,"INCLINATION":97.2838,"RA_OF_ASC_NODE":223.2444,"ARG_OF_PERICENTER":83.9891,"MEAN_ANOMALY":276.144,"EPHEMERIS_TYPE":0,"CLASSIFICATION_TYPE":"U","NORAD_CAT_ID":68301,"ELEMENT_SET_NO":999,"REV_AT_EPOCH":310,"BSTAR":0.00039904039,"MEAN_MOTION_DOT":0.00077111,"MEAN_MOTION_DDOT":0},{"OBJECT_NAME":"STARLINK-37007","OBJECT_ID":"2026-057J","EPOCH":"2026-04-09T07:37:25.810176","MEAN_MOTION":15.80867761,"ECCENTRICITY":8.916e-5,"INCLINATION":97.284,"RA_OF_ASC_NODE":223.2455,"ARG_OF_PERICENTER":121.3548,"MEAN_ANOMALY":238.7808,"EPHEMERIS_TYPE":0,"CLASSIFICATION_TYPE":"U","NORAD_CAT_ID":68302,"ELEMENT_SET_NO":999,"REV_AT_EPOCH":310,"BSTAR":0.00047955187,"MEAN_MOTION_DOT":0.00092916,"MEAN_MOTION_DDOT":0}]
